SatCatId,ObjectName,LaunchYear,OrbitalPeriod,LaunchMass,StatusCode,Inclination,Status,UcsData,OrbitClassEstimated,LaunchSiteCountry,Owner,UseType,Purpose,LaunchVehicleClass,TLE1,TLE2,MeanMotion,Eccentricity,OrbitClass
47550,STARLINK-1909,2021,95.59,260.0,+,53.05,Active,1,LEO,USA,USA,Commercial,Communications,Falcon,1 47550U 21009C   24131.24559449  .00001967  00000+0  15093-3 0  9999,2 47550  53.0537 122.3750 0001334  89.4877 270.6265 15.06396730180322,15.0639673,0.0001334,LEO
47551,STARLINK-1938,2021,95.59,260.0,+,53.05,Active,1,LEO,USA,USA,Commercial,Communications,Falcon,1 47551U 21009D   24131.43910228 -.00000357  00000+0 -50664-5 0  9996,2 47551  53.0539 141.5051 0001173  87.8285 272.2838 15.06395277180079,15.06395277,0.0001173,LEO
47552,STARLINK-1940,2021,95.59,260.0,+,53.05,Active,1,LEO,USA,USA,Commercial,Communications,Falcon,1 47552U 21009E   24131.31100940  .00025978  00000+0  17540-2 0  9993,2 47552  53.0506 132.0809 0001826  48.4166 311.6980 15.06452466180199,15.06452466,0.0001826,LEO
47554,STARLINK-1953,2021,95.59,260.0,+,53.05,Active,1,LEO,USA,USA,Commercial,Communications,Falcon,1 47554U 21009G   24131.44924174  .00002705  00000+0  20044-3 0  9999,2 47554  53.0527 151.4628 0001227  86.7312 273.3817 15.06396544179938,15.06396544,0.0001227,LEO
47555,STARLINK-1954,2021,95.59,260.0,+,53.05,Active,1,LEO,USA,USA,Commercial,Communications,Falcon,1 47555U 21009H   24131.29164536 -.00001882  00000+0 -10746-3 0  9996,2 47555  53.0534 142.1691 0001311  85.5268 274.5871 15.06401682180053,15.06401682,0.0001311,LEO
47556,STARLINK-1955,2021,95.59,260.0,+,53.05,Active,1,LEO,USA,USA,Commercial,Communications,Falcon,1 47556U 21009J   24131.52571908  .00006215  00000+0  43581-3 0  9994,2 47556  53.0522 161.1177 0001349  89.0517 271.0626 15.06396897179800,15.06396897,0.0001349,LEO
47557,STARLINK-1956,2021,95.59,260.0,+,53.05,Active,1,LEO,USA,USA,Commercial,Communications,Falcon,1 47557U 21009K   24131.35617351  .00006810  00000+0  47556-3 0  9996,2 47557  53.0521 161.8775 0001242  81.6001 278.5129 15.06405248179787,15.06405248,0.0001242,LEO
47558,STARLINK-1957,2021,95.59,260.0,+,53.05,Active,1,LEO,USA,USA,Commercial,Communications,Falcon,1 47558U 21009L   24131.27046374  .00000451  00000+0  49186-4 0  9996,2 47558  53.0535 132.2628 0001263  91.6948 268.4185 15.06394190180185,15.0639419,0.0001263,LEO
47559,STARLINK-1958,2021,95.59,260.0,+,53.05,Active,1,LEO,USA,USA,Commercial,Communications,Falcon,1 47559U 21009M   24131.23453648 -.00000089  00000+0  12937-4 0  9991,2 47559  53.0536 122.4238 0001473  87.2289 272.8869 15.06393353180321,15.06393353,0.0001473,LEO
47560,STARLINK-1959,2021,95.59,260.0,+,53.05,Active,1,LEO,USA,USA,Commercial,Communications,Falcon,1 47560U 21009N   24131.29256863  .00000682  00000+0  64712-4 0  9995,2 47560  53.0543 122.1543 0001393  86.7094 273.4054 15.06392745180334,15.06392745,0.0001393,LEO
47561,STARLINK-1960,2021,95.59,260.0,+,53.05,Active,1,LEO,USA,USA,Commercial,Communications,Falcon,1 47561U 21009P   24131.41329258  .00002720  00000+0  20140-3 0  9990,2 47561  53.0525 141.6258 0001595  70.7020 289.4141 15.06404206180071,15.06404206,0.0001595,LEO
47562,STARLINK-1961,2021,95.59,260.0,+,53.05,Active,1,LEO,USA,USA,Commercial,Communications,Falcon,1 47562U 21009Q   24131.29534186  .00001743  00000+0  13586-3 0  9995,2 47562  53.0523 142.1521 0001390  91.5201 268.5947 15.06412109180055,15.06412109,0.000139,LEO
47563,STARLINK-1962,2021,95.59,260.0,+,53.05,Active,1,LEO,USA,USA,Commercial,Communications,Falcon,1 47563U 21009R   24131.31745463 -.00002982  00000+0 -18141-3 0  9991,2 47563  53.0526 142.0519 0001204  99.0860 261.0265 15.06395213180050,15.06395213,0.0001204,LEO
47564,STARLINK-1963,2021,95.59,260.0,+,53.05,Active,1,LEO,USA,USA,Commercial,Communications,Falcon,1 47564U 21009S   24131.31837920  .00005806  00000+0  40828-3 0  9995,2 47564  53.0526 132.0481 0001655  83.7558 276.3620 15.06404793180195,15.06404793,0.0001655,LEO
47565,STARLINK-1964,2021,95.59,260.0,+,53.05,Active,1,LEO,USA,USA,Commercial,Communications,Falcon,1 47565U 21009T   24131.24833934  .00003006  00000+0  22058-3 0  9994,2 47565  53.0531 132.3626 0001174  76.6314 283.4806 15.06405066180181,15.06405066,0.0001174,LEO
47566,STARLINK-1965,2021,95.59,260.0,+,53.05,Active,1,LEO,USA,USA,Commercial,Communications,Falcon,1 47566U 21009U   24131.24189902  .00002363  00000+0  17747-3 0  9998,2 47566  53.0534 122.3894 0001448  91.5614 268.5541 15.06394674180322,15.06394674,0.0001448,LEO
47567,STARLINK-1966,2021,95.59,260.0,+,53.05,Active,1,LEO,USA,USA,Commercial,Communications,Falcon,1 47567U 21009V   24131.47780123  .00000886  00000+0  78348-4 0  9999,2 47567  53.0513 161.3319 0001087  84.4840 275.6273 15.06398261179792,15.06398261,0.0001087,LEO
47568,STARLINK-1967,2021,95.59,260.0,+,53.05,Active,1,LEO,USA,USA,Commercial,Communications,Falcon,1 47568U 21009W   24131.50360932  .00000271  00000+0  37123-4 0  9990,2 47568  53.0526 161.2165 0001334  94.7010 265.4131 15.06392093179802,15.06392093,0.0001334,LEO
47570,STARLINK-1969,2021,92.98,260.0,P,53.05,Active,1,LEO,USA,USA,Commercial,Communications,Falcon,1 47570U 21009Y   24131.58334491  .00220994  00000+0  39422-2 0  9990,2 47570  53.0533 111.9746 0001096  91.7031 247.3037 15.48780012  5917,15.48780012,0.0001096,LEO
47571,STARLINK-1970,2021,95.59,260.0,+,53.05,Active,1,LEO,USA,USA,Commercial,Communications,Falcon,1 47571U 21009Z   24131.44002976  .00004313  00000+0  30834-3 0  9990,2 47571  53.0524 131.5033 0001454  95.9869 264.1286 15.06394411180216,15.06394411,0.0001454,LEO
47572,STARLINK-1971,2021,95.59,260.0,+,53.05,Active,1,LEO,USA,USA,Commercial,Communications,Falcon,1 47572U 21009AA  24131.28889193 -.00002236  00000+0 -13125-3 0  9995,2 47572  53.0531 132.1853 0001310  85.5387 274.5752 15.06394541180197,15.06394541,0.000131,LEO
47573,STARLINK-1975,2021,95.59,260.0,+,53.05,Active,1,LEO,USA,USA,Commercial,Communications,Falcon,1 47573U 21009AB  24131.26677912  .00002481  00000+0  18542-3 0  9996,2 47573  53.0536 132.2797 0001308  87.3296 272.7842 15.06395201180180,15.06395201,0.0001308,LEO
47574,STARLINK-1976,2021,95.59,260.0,+,53.05,Active,1,LEO,USA,USA,Commercial,Communications,Falcon,1 47574U 21009AC  24131.34879847  .00002108  00000+0  16040-3 0  9994,2 47574  53.0540 161.9148 0001403  90.6142 269.5008 15.06395724179779,15.06395724,0.0001403,LEO
47575,STARLINK-1977,2021,95.59,260.0,+,53.05,Active,1,LEO,USA,USA,Commercial,Communications,Falcon,1 47575U 21009AD  24131.47043541  .00000392  00000+0  45195-4 0  9990,2 47575  53.0537 161.3683 0001274  88.3887 271.7248 15.06394333179798,15.06394333,0.0001274,LEO
47576,STARLINK-1978,2021,95.59,260.0,+,53.05,Active,1,LEO,USA,USA,Commercial,Communications,Falcon,1 47576U 21009AE  24131.23822330  .00002546  00000+0  18976-3 0  9995,2 47576  53.0538 122.4090 0001262  89.9674 270.1460 15.06396362180322,15.06396362,0.0001262,LEO
47577,STARLINK-1979,2021,95.59,260.0,+,53.05,Active,1,LEO,USA,USA,Commercial,Communications,Falcon,1 47577U 21009AF  24131.41190778  .00001026  00000+0  87781-4 0  9993,2 47577  53.0537 136.6272 0001447  90.8774 269.2381 15.06401607180148,15.06401607,0.0001447,LEO
47578,STARLINK-1980,2021,95.59,260.0,+,53.05,Active,1,LEO,USA,USA,Commercial,Communications,Falcon,1 47578U 21009AG  24131.47227488  .00002439  00000+0  18267-3 0  9990,2 47578  53.0540 141.3583 0001358  79.9017 280.2126 15.06386583180077,15.06386583,0.0001358,LEO
47579,STARLINK-1981,2021,95.59,260.0,+,53.05,Active,1,LEO,USA,USA,Commercial,Communications,Falcon,1 47579U 21009AH  24131.32207620  .00001073  00000+0  90921-4 0  9992,2 47579  53.0541 132.0337 0001366  93.2118 266.9027 15.06388324180192,15.06388324,0.0001366,LEO
47580,STARLINK-1982,2021,95.59,260.0,+,53.05,Active,1,LEO,USA,USA,Commercial,Communications,Falcon,1 47580U 21009AJ  24131.34327157  .00001393  00000+0  11240-3 0  9995,2 47580  53.0542 141.9370 0001382  91.7191 268.3956 15.06395216180053,15.06395216,0.0001382,LEO
47581,STARLINK-1984,2021,94.62,260.0,P,53.05,Active,1,LEO,USA,USA,Commercial,Communications,Falcon,1 47581U 21009AK  24131.58334491  .00528463  00000+0  21487-1 0  9995,2 47581  53.0541 120.0596 0001510  75.6073 310.4771 15.22013878  5794,15.22013878,0.000151,LEO
47582,STARLINK-1986,2021,95.59,260.0,+,53.05,Active,1,LEO,USA,USA,Commercial,Communications,Falcon,1 47582U 21009AL  24131.44278086 -.00000994  00000+0 -47867-4 0  9997,2 47582  53.0530 141.4890 0001193  85.4135 274.6990 15.06397403180072,15.06397403,0.0001193,LEO
47583,STARLINK-1987,2021,95.59,260.0,+,53.05,Active,1,LEO,USA,USA,Commercial,Communications,Falcon,1 47583U 21009AM  24131.28796459  .00002515  00000+0  18764-3 0  9991,2 47583  53.0522 142.1846 0001138  90.2683 269.8437 15.06399034180056,15.06399034,0.0001138,LEO
47585,STARLINK-1989,2021,95.59,260.0,+,53.05,Active,1,LEO,USA,USA,Commercial,Communications,Falcon,1 47585U 21009AP  24131.44647561  .00000941  00000+0  82033-4 0  9992,2 47585  53.0541 141.4767 0001041  99.3318 260.7789 15.06398838180074,15.06398838,0.0001041,LEO
47586,STARLINK-1990,2021,95.59,260.0,+,53.05,Active,1,LEO,USA,USA,Commercial,Communications,Falcon,1 47586U 21009AQ  24131.29719423  .00000872  00000+0  77424-4 0  9994,2 47586  53.0522 162.1438 0001352  88.9203 271.1941 15.06395992179770,15.06395992,0.0001352,LEO
47587,STARLINK-1991,2021,95.59,260.0,+,53.05,Active,1,LEO,USA,USA,Commercial,Communications,Falcon,1 47587U 21009AR  24131.29258986  .00002609  00000+0  19397-3 0  9991,2 47587  53.0526 132.1656 0001291  80.8911 279.2224 15.06401032180197,15.06401032,0.0001291,LEO
47588,STARLINK-1993,2021,95.59,260.0,+,53.05,Active,1,LEO,USA,USA,Commercial,Communications,Falcon,1 47588U 21009AS  24131.35062816  .00001575  00000+0  12462-3 0  9991,2 47588  53.0540 141.9035 0001390  93.4345 266.6803 15.06399050180069,15.0639905,0.000139,LEO
